[Satellite]
VERSION=1.1
NAME=METEOR-M 1
NICKNAME=METEOR-M 1
TLE1=1 35865U 09049A   20157.98035685  .00000005  00000-0  21167-4 0  9994
TLE2=2 35865  98.4378 145.5098 0001650 195.5194 164.5934 14.22239511556284
STATUS=0
